CCSDS_OMM_VERS = 2.0
CREATION_DATE  = 
ORIGINATOR     = 

OBJECT_NAME    = STARLINK-36916
OBJECT_ID      = 2026-040H
CENTER_NAME    = EARTH
REF_FRAME      = TEME
TIME_SYSTEM    = UTC
MEAN_ELEMENT_THEORY = SGP/SGP4

EPOCH          = 2026-03-28T04:00:01.999584
MEAN_MOTION    = 15.70918791
ECCENTRICITY   = .0001338
INCLINATION    = 97.2858
RA_OF_ASC_NODE = 36.5292
ARG_OF_PERICENTER = 107.2335
MEAN_ANOMALY   = 273.6932

EPHEMERIS_TYPE = 0
CLASSIFICATION_TYPE = U
NORAD_CAT_ID   = 68022
ELEMENT_SET_NO = 999
REV_AT_EPOCH   = 540
BSTAR          = -.17119E-1
MEAN_MOTION_DOT = -.1857676E-1
MEAN_MOTION_DDOT = 0

CCSDS_OMM_VERS = 2.0
CREATION_DATE  = 
ORIGINATOR     = 

OBJECT_NAME    = STARLINK-36871
OBJECT_ID      = 2026-040J
CENTER_NAME    = EARTH
REF_FRAME      = TEME
TIME_SYSTEM    = UTC
MEAN_ELEMENT_THEORY = SGP/SGP4

EPOCH          = 2026-03-28T02:20:49.444800
MEAN_MOTION    = 15.75271393
ECCENTRICITY   = .0002278
INCLINATION    = 97.2868
RA_OF_ASC_NODE = 36.4586
ARG_OF_PERICENTER = 123.7783
MEAN_ANOMALY   = 236.3700

EPHEMERIS_TYPE = 0
CLASSIFICATION_TYPE = U
NORAD_CAT_ID   = 68023
ELEMENT_SET_NO = 999
REV_AT_EPOCH   = 425
BSTAR          = .1343E-2
MEAN_MOTION_DOT = .205828E-2
MEAN_MOTION_DDOT = 0

CCSDS_OMM_VERS = 2.0
CREATION_DATE  = 
ORIGINATOR     = 

OBJECT_NAME    = STARLINK-36891
OBJECT_ID      = 2026-040K
CENTER_NAME    = EARTH
REF_FRAME      = TEME
TIME_SYSTEM    = UTC
MEAN_ELEMENT_THEORY = SGP/SGP4

EPOCH          = 2026-03-27T20:13:53.726016
MEAN_MOTION    = 15.75238981
ECCENTRICITY   = .0001281
INCLINATION    = 97.2867
RA_OF_ASC_NODE = 36.1942
ARG_OF_PERICENTER = 105.8458
MEAN_ANOMALY   = 254.2948

EPHEMERIS_TYPE = 0
CLASSIFICATION_TYPE = U
NORAD_CAT_ID   = 68024
ELEMENT_SET_NO = 999
REV_AT_EPOCH   = 421
BSTAR          = .11453359E-2
MEAN_MOTION_DOT = .174611E-2
MEAN_MOTION_DDOT = 0

CCSDS_OMM_VERS = 2.0
CREATION_DATE  = 
ORIGINATOR     = 

OBJECT_NAME    = STARLINK-36378
OBJECT_ID      = 2026-040L
CENTER_NAME    = EARTH
REF_FRAME      = TEME
TIME_SYSTEM    = UTC
MEAN_ELEMENT_THEORY = SGP/SGP4

EPOCH          = 2026-03-28T03:49:15.472704
MEAN_MOTION    = 15.75366491
ECCENTRICITY   = .000103
INCLINATION    = 97.2860
RA_OF_ASC_NODE = 36.5320
ARG_OF_PERICENTER = 62.5325
MEAN_ANOMALY   = 297.6045

EPHEMERIS_TYPE = 0
CLASSIFICATION_TYPE = U
NORAD_CAT_ID   = 68025
ELEMENT_SET_NO = 999
REV_AT_EPOCH   = 426
BSTAR          = .30706E-2
MEAN_MOTION_DOT = .488826E-2
MEAN_MOTION_DDOT = 0

CCSDS_OMM_VERS = 2.0
CREATION_DATE  = 
ORIGINATOR     = 

OBJECT_NAME    = STARLINK-36884
OBJECT_ID      = 2026-040M
CENTER_NAME    = EARTH
REF_FRAME      = TEME
TIME_SYSTEM    = UTC
MEAN_ELEMENT_THEORY = SGP/SGP4

EPOCH          = 2026-03-28T03:49:45.977952
MEAN_MOTION    = 15.75274542
ECCENTRICITY   = .0001766
INCLINATION    = 97.2866
RA_OF_ASC_NODE = 36.5295
ARG_OF_PERICENTER = 98.3909
MEAN_ANOMALY   = 261.7556

EPHEMERIS_TYPE = 0
CLASSIFICATION_TYPE = U
NORAD_CAT_ID   = 68026
ELEMENT_SET_NO = 999
REV_AT_EPOCH   = 426
BSTAR          = .15886E-2
MEAN_MOTION_DOT = .244622E-2
MEAN_MOTION_DDOT = 0

CCSDS_OMM_VERS = 2.0
CREATION_DATE  = 
ORIGINATOR     = 

OBJECT_NAME    = STARLINK-36940
OBJECT_ID      = 2026-040N
CENTER_NAME    = EARTH
REF_FRAME      = TEME
TIME_SYSTEM    = UTC
MEAN_ELEMENT_THEORY = SGP/SGP4

EPOCH          = 2026-03-27T19:59:39.808032
MEAN_MOTION    = 15.75235329
ECCENTRICITY   = .00015801
INCLINATION    = 97.2853
RA_OF_ASC_NODE = 36.2150
ARG_OF_PERICENTER = 92.9808
MEAN_ANOMALY   = 267.1638

EPHEMERIS_TYPE = 0
CLASSIFICATION_TYPE = U
NORAD_CAT_ID   = 68027
ELEMENT_SET_NO = 999
REV_AT_EPOCH   = 421
BSTAR          = .17193248E-2
MEAN_MOTION_DOT = .264956E-2
MEAN_MOTION_DDOT = 0

CCSDS_OMM_VERS = 2.0
CREATION_DATE  = 
ORIGINATOR     = 

OBJECT_NAME    = STARLINK-36253
OBJECT_ID      = 2026-040P
CENTER_NAME    = EARTH
REF_FRAME      = TEME
TIME_SYSTEM    = UTC
MEAN_ELEMENT_THEORY = SGP/SGP4

EPOCH          = 2026-03-28T04:00:01.999584
MEAN_MOTION    = 15.36228592
ECCENTRICITY   = .000213
INCLINATION    = 97.2837
RA_OF_ASC_NODE = 36.0207
ARG_OF_PERICENTER = 97.4257
MEAN_ANOMALY   = 156.2348

EPHEMERIS_TYPE = 0
CLASSIFICATION_TYPE = U
NORAD_CAT_ID   = 68028
ELEMENT_SET_NO = 999
REV_AT_EPOCH   = 550
BSTAR          = -.51657E-1
MEAN_MOTION_DOT = -.16558E-1
MEAN_MOTION_DDOT = 0

CCSDS_OMM_VERS = 2.0
CREATION_DATE  = 
ORIGINATOR     = 

OBJECT_NAME    = STARLINK-36944
OBJECT_ID      = 2026-040Q
CENTER_NAME    = EARTH
REF_FRAME      = TEME
TIME_SYSTEM    = UTC
MEAN_ELEMENT_THEORY = SGP/SGP4

EPOCH          = 2026-03-28T03:48:14.489856
MEAN_MOTION    = 15.75364653
ECCENTRICITY   = .000122
INCLINATION    = 97.2869
RA_OF_ASC_NODE = 36.5298
ARG_OF_PERICENTER = 61.3605
MEAN_ANOMALY   = 298.7782

EPHEMERIS_TYPE = 0
CLASSIFICATION_TYPE = U
NORAD_CAT_ID   = 68029
ELEMENT_SET_NO = 999
REV_AT_EPOCH   = 426
BSTAR          = .29934E-2
MEAN_MOTION_DOT = .475748E-2
MEAN_MOTION_DDOT = 0

CCSDS_OMM_VERS = 2.0
CREATION_DATE  = 
ORIGINATOR     = 

OBJECT_NAME    = STARLINK-36942
OBJECT_ID      = 2026-040R
CENTER_NAME    = EARTH
REF_FRAME      = TEME
TIME_SYSTEM    = UTC
MEAN_ELEMENT_THEORY = SGP/SGP4

EPOCH          = 2026-03-27T20:09:49.820544
MEAN_MOTION    = 15.75249802
ECCENTRICITY   = .00016733
INCLINATION    = 97.2847
RA_OF_ASC_NODE = 36.2010
ARG_OF_PERICENTER = 102.7561
MEAN_ANOMALY   = 257.3892

EPHEMERIS_TYPE = 0
CLASSIFICATION_TYPE = U
NORAD_CAT_ID   = 68030
ELEMENT_SET_NO = 999
REV_AT_EPOCH   = 421
BSTAR          = .12661523E-2
MEAN_MOTION_DOT = .193568E-2
MEAN_MOTION_DDOT = 0

CCSDS_OMM_VERS = 2.0
CREATION_DATE  = 
ORIGINATOR     = 

OBJECT_NAME    = STARLINK-36913
OBJECT_ID      = 2026-040S
CENTER_NAME    = EARTH
REF_FRAME      = TEME
TIME_SYSTEM    = UTC
MEAN_ELEMENT_THEORY = SGP/SGP4

EPOCH          = 2026-03-28T04:00:01.999584
MEAN_MOTION    = 15.65782624
ECCENTRICITY   = .0001326
INCLINATION    = 97.2852
RA_OF_ASC_NODE = 36.5312
ARG_OF_PERICENTER = 104.3740
MEAN_ANOMALY   = 272.7095

EPHEMERIS_TYPE = 0
CLASSIFICATION_TYPE = U
NORAD_CAT_ID   = 68031
ELEMENT_SET_NO = 999
REV_AT_EPOCH   = 540
BSTAR          = -.21095E-1
MEAN_MOTION_DOT = -.189029E-1
MEAN_MOTION_DDOT = 0

CCSDS_OMM_VERS = 2.0
CREATION_DATE  = 
ORIGINATOR     = 

OBJECT_NAME    = STARLINK-36935
OBJECT_ID      = 2026-040T
CENTER_NAME    = EARTH
REF_FRAME      = TEME
TIME_SYSTEM    = UTC
MEAN_ELEMENT_THEORY = SGP/SGP4

EPOCH          = 2026-03-27T20:01:41.962080
MEAN_MOTION    = 15.75241727
ECCENTRICITY   = .00013018
INCLINATION    = 97.2860
RA_OF_ASC_NODE = 36.2096
ARG_OF_PERICENTER = 86.0552
MEAN_ANOMALY   = 274.0862

EPHEMERIS_TYPE = 0
CLASSIFICATION_TYPE = U
NORAD_CAT_ID   = 68032
ELEMENT_SET_NO = 999
REV_AT_EPOCH   = 421
BSTAR          = .11171393E-2
MEAN_MOTION_DOT = .170242E-2
MEAN_MOTION_DDOT = 0

CCSDS_OMM_VERS = 2.0
CREATION_DATE  = 
ORIGINATOR     = 

OBJECT_NAME    = STARLINK-36947
OBJECT_ID      = 2026-040U
CENTER_NAME    = EARTH
REF_FRAME      = TEME
TIME_SYSTEM    = UTC
MEAN_ELEMENT_THEORY = SGP/SGP4

EPOCH          = 2026-03-27T20:07:47.895456
MEAN_MOTION    = 15.75259027
ECCENTRICITY   = .00017401
INCLINATION    = 97.2847
RA_OF_ASC_NODE = 36.2026
ARG_OF_PERICENTER = 94.9034
MEAN_ANOMALY   = 265.2430

EPHEMERIS_TYPE = 0
CLASSIFICATION_TYPE = U
NORAD_CAT_ID   = 68033
ELEMENT_SET_NO = 999
REV_AT_EPOCH   = 421
BSTAR          = .14451749E-2
MEAN_MOTION_DOT = .221781E-2
MEAN_MOTION_DDOT = 0

