STARLINK-36916          
1 68022U 26040H   26087.16668981 -.01857676  00000+0 -17119-1 0  9999
2 68022  97.2858  36.5292 0001338 107.2335 273.6932 15.70918791  5401
STARLINK-36871          
1 68023U 26040J   26087.09779450  .00205828  00000+0  13430-2 0  9992
2 68023  97.2868  36.4586 0002278 123.7783 236.3700 15.75271393  4258
STARLINK-36891          
1 68024U 26040K   26086.84298294  .00174611  00000+0  11453-2 0  9995
2 68024  97.2867  36.1942 0001281 105.8458 254.2948 15.75238981  4219
STARLINK-36378          
1 68025U 26040L   26087.15920686  .00488826  00000+0  30706-2 0  9996
2 68025  97.2860  36.5320 0001030  62.5325 297.6045 15.75366491  4263
STARLINK-36884          
1 68026U 26040M   26087.15955993  .00244622  00000+0  15886-2 0  9992
2 68026  97.2866  36.5295 0001766  98.3909 261.7556 15.75274542  4266
STARLINK-36940          
1 68027U 26040N   26086.83309963  .00264956  00000+0  17193-2 0  9992
2 68027  97.2853  36.2150 0001580  92.9808 267.1638 15.75235329  4218
STARLINK-36253          
1 68028U 26040P   26087.16668981 -.01655800  00000+0 -51657-1 0  9995
2 68028  97.2837  36.0207 0002130  97.4257 156.2348 15.36228592  5502
STARLINK-36944          
1 68029U 26040Q   26087.15850104  .00475748  00000+0  29934-2 0  9997
2 68029  97.2869  36.5298 0001220  61.3605 298.7782 15.75364653  4267
STARLINK-36942          
1 68030U 26040R   26086.84015996  .00193568  00000+0  12662-2 0  9993
2 68030  97.2847  36.2010 0001673 102.7561 257.3892 15.75249802  4213
STARLINK-36913          
1 68031U 26040S   26087.16668981 -.01890290  00000+0 -21095-1 0  9996
2 68031  97.2852  36.5312 0001326 104.3740 272.7095 15.65782624  5401
STARLINK-36935          
1 68032U 26040T   26086.83451345  .00170242  00000+0  11171-2 0  9994
2 68032  97.2860  36.2096 0001301  86.0552 274.0862 15.75241727  4217
STARLINK-36947          
1 68033U 26040U   26086.83874879  .00221781  00000+0  14452-2 0  9996
2 68033  97.2847  36.2026 0001740  94.9034 265.2430 15.75259027  4211
